{"type":"FeatureCollection","features":[{"type":"Feature","geometry":{"type":"Polygon","coordinates":[[[-34.8503353446722,-7.186048470992117],[-34.85028237104416,-7.187003486883896],[-34.84955783933401,-7.187549019268578],[-34.849420376122,-7.187895298936284],[-34.84937410801649,-7.188557919812551],[-34.84905995428562,-7.188900207025192],[-34.84737318009138,-7.190276006086432],[-34.84688267111778,-7.190453968184771],[-34.84654102474451,-7.190391431978718],[-34.84624832868576,-7.190469934874312],[-34.84607767313719,-7.190425028558568],[-34.846003241837025,-7.190272679691398],[-34.8456109687686,-7.190273677609906],[-34.84533369541168,-7.1905125127103],[-34.839941784739494,-7.193133703050513],[-34.83880452811718,-7.19318359865894],[-34.83754925429821,-7.1934976082288795],[-34.83710937201977,-7.193934027948368],[-34.83661886304617,-7.194280635383989],[-34.83631543815136,-7.194232070442558],[-34.83601503074169,-7.193934027948368],[-34.834684655070305,-7.19385951729427],[-34.83379416167736,-7.193199897889836],[-34.83331136405468,-7.193082476886806],[-34.83285002410412,-7.193263431621028],[-34.83222775161266,-7.193806295390972],[-34.83174495398998,-7.193795983646487],[-34.831444546580315,-7.194051116094418],[-34.8307579010725,-7.194455602184741],[-34.829735308885574,-7.194688114996197],[-34.82963539659977,-7.194562378469159],[-34.82944093644619,-7.193516235908415],[-34.82955191284418,-7.192600817610344],[-34.82874725013971,-7.191134880466735],[-34.82828255742788,-7.190618624643572],[-34.826818741858006,-7.189613720356395],[-34.8248278722167,-7.188657046748104],[-34.82395380735397,-7.1878310991715235],[-34.82302442193031,-7.185890465731185],[-34.822504073381424,-7.185043889239531],[-34.822309613227844,-7.184520640976977],[-34.82221271842718,-7.183123535226878],[-34.82242092490196,-7.183089272817649],[-34.82252486050129,-7.18280685732658],[-34.822559393942356,-7.182304563145818],[-34.8220806196332,-7.181836530916311],[-34.821247793734074,-7.18036057964334],[-34.82115190476179,-7.180076499222757],[-34.82053432613611,-7.1792984373027675],[-34.82037305831909,-7.179223258953541],[-34.81976989656687,-7.17853534321636],[-34.819629080593586,-7.177622223283346],[-34.81943495571613,-7.173818368801136],[-34.81837648898363,-7.171182097701441],[-34.818244725465775,-7.169984210988837],[-34.81702364981175,-7.1674101244123705],[-34.81686405837536,-7.165503667613851],[-34.81696128845215,-7.16330778941372],[-34.816708490252495,-7.160482505933413],[-34.81900781393052,-7.160568665196225],[-34.82015747576952,-7.160381709555076],[-34.82563052326441,-7.160268272020174],[-34.82589304447174,-7.1603324756724245],[-34.82635471969843,-7.160660812343463],[-34.82732970267534,-7.16166810918645],[-34.82773773372173,-7.161752272263146],[-34.82899200171232,-7.161412293257101],[-34.83443520963192,-7.159636880181243],[-34.83834721148014,-7.15952909771465],[-34.83843605965376,-7.159562031248808],[-34.838375709950924,-7.1615992484757705],[-34.84194673597813,-7.161694722018678],[-34.84381891787052,-7.162109882000858],[-34.84492834657431,-7.162515061811277],[-34.84478820115328,-7.162919243283136],[-34.84490353614092,-7.163248908728586],[-34.84541919082403,-7.163921877914089],[-34.84556168317795,-7.164574886608962],[-34.84552748501301,-7.16520760224115],[-34.84525624662638,-7.165739189143753],[-34.84512750059366,-7.1662721060545564],[-34.84513856470585,-7.166790385448652],[-34.84531290829182,-7.167496947678146],[-34.84559051692486,-7.167923080018474],[-34.8457957059145,-7.168847862336826],[-34.8462188243866,-7.1701595197936925],[-34.84668653458357,-7.172397279197498],[-34.8469564318657,-7.172948151536627],[-34.84707277268171,-7.173409872524791],[-34.84719414263964,-7.174417141182147],[-34.84837330877781,-7.1768042392443965],[-34.84894998371601,-7.178693018385358],[-34.848976135253906,-7.179076228694816],[-34.849293641746044,-7.179836993343866],[-34.84945759177208,-7.180109763918165],[-34.8497536405921,-7.180261783545282],[-34.85025588423014,-7.180791689638218],[-34.85053617507219,-7.180949031378701],[-34.85072124749422,-7.181216478947934],[-34.85081110149622,-7.181520850057388],[-34.85063675791025,-7.182523111079422],[-34.85046744346619,-7.182858749938805],[-34.85001280903816,-7.183315138555231],[-34.849906861782074,-7.183640464854863],[-34.849944077432156,-7.184049617232453],[-34.850234761834145,-7.1850937857365915],[-34.8503353446722,-7.186048470992117]]]},"id":"95d9044c-67b3-4dfb-95b2-52fbae35ef9a","properties":{"text":"Mangabeira"}},{"type":"Feature","geometry":{"type":"Polygon","coordinates":[[[-34.85949710011482,-7.224798680393696],[-34.853142611682415,-7.225362793649766],[-34.84477646648884,-7.228294774260764],[-34.8436663672328,-7.228170710123524],[-34.84251502901316,-7.225073752216784],[-34.84186291694641,-7.2224999781185435],[-34.841962829232216,-7.212604215803677],[-34.84173182398081,-7.21218876933325],[-34.841892421245575,-7.211884086171077],[-34.841951094567776,-7.208703195021252],[-34.847414419054985,-7.207741904897089],[-34.84740536659956,-7.207597544889128],[-34.848975129425526,-7.207328117101488],[-34.8498535528779,-7.207339093792264],[-34.853354170918465,-7.206925638256094],[-34.85378701239824,-7.206635254536495],[-34.853968396782875,-7.206725063954198],[-34.85396638512612,-7.2069389433475965],[-34.8553554341197,-7.206226455147385],[-34.86148763448,-7.201924891948302],[-34.86351639032364,-7.200867456885411],[-34.86365586519241,-7.200494576553578],[-34.86352074891329,-7.199162383390096],[-34.863670282065875,-7.19910982737485],[-34.863591492176056,-7.198419280684592],[-34.863355457782745,-7.198248972283395],[-34.862615168094635,-7.198248972283395],[-34.86460268497467,-7.1963030612080034],[-34.86755780875683,-7.194767615057463],[-34.86854285001755,-7.193614696487483],[-34.86885700374842,-7.193062851277108],[-34.87097829580307,-7.191224692953342],[-34.870849549770355,-7.190570724588993],[-34.873475432395935,-7.189916422643133],[-34.873883463442326,-7.1897045310636],[-34.87442325800657,-7.189555175715017],[-34.87486883997917,-7.189523907551197],[-34.87658243626356,-7.189567483395958],[-34.876865074038506,-7.189692223386399],[-34.87744878977537,-7.1897980028714565],[-34.87772472202778,-7.1898791669879785],[-34.877930246293545,-7.190057794521141],[-34.87813711166382,-7.190383448632655],[-34.87847004085779,-7.19061596352955],[-34.87929582595825,-7.190813551202461],[-34.879878871142864,-7.19079226229906],[-34.88011792302132,-7.1906266079855],[-34.88041900098324,-7.190667189971518],[-34.88065268844366,-7.1909479373820595],[-34.881148897111416,-7.190866440817487],[-34.88202765583992,-7.190849808863727],[-34.88213058561087,-7.190921326260525],[-34.882482290267944,-7.1906152982510445],[-34.88296743482351,-7.190923322094705],[-34.88321453332902,-7.190897043610781],[-34.88326381891966,-7.191104942967251],[-34.883420057594776,-7.191205067263329],[-34.884304851293564,-7.191009475594581],[-34.88588400185108,-7.190821534540966],[-34.88589573651552,-7.190904694308775],[-34.890453815460205,-7.190596337813227],[-34.89173926413059,-7.18567191941656],[-34.89291541278362,-7.1864107186356065],[-34.895093366503716,-7.187315837518459],[-34.89576056599617,-7.18784141105145],[-34.89735949784517,-7.188405902960023],[-34.899802319705486,-7.188172389008653],[-34.90059692412615,-7.1882987925869735],[-34.901038482785225,-7.189136049084779],[-34.89976309239864,-7.190673842755772],[-34.900101721286774,-7.192138783473392],[-34.90057412534952,-7.193373867195475],[-34.90122489631176,-7.19472304180307],[-34.90230415016413,-7.197681831541112],[-34.903559759259224,-7.199667319985967],[-34.904246404767036,-7.20148748202161],[-34.90469802170992,-7.202996295012743],[-34.904560558497906,-7.204650794491377],[-34.905041344463825,-7.205400206924141],[-34.90860901772976,-7.205132440973052],[-34.90974593907595,-7.208678248071482],[-34.9095705896616,-7.20860440509216],[-34.90855202078819,-7.208778701114145],[-34.90758005529642,-7.209015863341716],[-34.90719314664602,-7.209205792609718],[-34.907056018710136,-7.209354808862318],[-34.906599037349224,-7.210271856462601],[-34.90648303180933,-7.210653709612928],[-34.90645721554756,-7.211085788703988],[-34.90542825311422,-7.212042747625005],[-34.9051721021533,-7.21246784030296],[-34.90409519523382,-7.212926860117417],[-34.9025247618556,-7.2137467747872295],[-34.901533015072346,-7.214121307322795],[-34.90088392049074,-7.214133281714911],[-34.90008093416691,-7.214262006410171],[-34.899478778243065,-7.214554713591285],[-34.898605048656464,-7.21451978831258],[-34.89805016666651,-7.21470705429929],[-34.89740073680878,-7.214601613247032],[-34.89485062658787,-7.2151171765181905],[-34.8902191221714,-7.2144662362133305],[-34.88955393433571,-7.2144981679005875],[-34.88710775971413,-7.21542418585161],[-34.88133564591408,-7.2177977634405375],[-34.87922206521034,-7.218745062230398],[-34.87806335091591,-7.219160170063796],[-34.87745180726051,-7.219660427715803],[-34.8768724501133,-7.220522572583529],[-34.87633600831032,-7.220884460062965],[-34.87411513924599,-7.221320853402997],[-34.87310662865639,-7.221288922197263],[-34.87275291234255,-7.221044116211809],[-34.87272072583437,-7.22046935381211],[-34.87221613526345,-7.220394847521632],[-34.87105742096901,-7.221586946696282],[-34.87089682370424,-7.221916902162556],[-34.87089682370424,-7.222214926247684],[-34.87111106514931,-7.222598099782793],[-34.87174406647682,-7.222949341904682],[-34.87195864319801,-7.223428307994726],[-34.87199082970619,-7.223971135616674],[-34.871819503605366,-7.224375594989576],[-34.87130451947451,-7.224705548420499],[-34.87053170800209,-7.224833272264574],[-34.86960902810097,-7.224801341306949],[-34.8687507212162,-7.225141938072054],[-34.86855760216713,-7.225408029116228],[-34.86856833100319,-7.2256634763712],[-34.86952353268862,-7.22667462033854],[-34.86970592290163,-7.227281305632827],[-34.8694484308362,-7.227579326180783],[-34.86914802342653,-7.2276219005287325],[-34.86861124634743,-7.227355810788254],[-34.86735060811043,-7.226983284888288],[-34.866015538573265,-7.226628054547628],[-34.8653868958354,-7.22656552333516],[-34.86529938876629,-7.226670961598009],[-34.86529938876629,-7.226806002365569],[-34.865551851689816,-7.2272008134422085],[-34.86555688083172,-7.227365456544067],[-34.86548379063606,-7.22754739541721],[-34.865126721560955,-7.227727671157064],[-34.86492119729519,-7.227761930191737],[-34.86343793570995,-7.227408030912181],[-34.8630677908659,-7.227614583062962],[-34.8626409843564,-7.228740806172358],[-34.862636625766754,-7.229212448684089],[-34.86237846314907,-7.229558031283787],[-34.86208073794842,-7.229600605445228],[-34.86091632395983,-7.22847604753671],[-34.86053042113781,-7.228436466772551],[-34.85978543758392,-7.228686257923434],[-34.858716912567616,-7.2283938925013675],[-34.858803413808346,-7.2277579388479944],[-34.85919166356325,-7.226959669396783],[-34.85996883362532,-7.226574171269306],[-34.85949710011482,-7.224798680393696]]]},"id":"0d947b28-5df9-45f2-9d60-178ff8608dce","properties":{"text":"Gramame"}},{"type":"Feature","geometry":{"type":"Polygon","coordinates":[[[-34.88754831254482,-7.123005012590075],[-34.88648280501366,-7.122981059014361],[-34.885499104857445,-7.122872935219506],[-34.88504480570555,-7.12270459473741],[-34.88445371389389,-7.122745848141893],[-34.88465119153261,-7.1242116723473385],[-34.88473668694496,-7.125813893352797],[-34.871886894106865,-7.126557114400927],[-34.87137023359537,-7.12689345978795],[-34.8699027299881,-7.12458428238323],[-34.86726477742195,-7.120098968959427],[-34.86778378486633,-7.119816514509655],[-34.870557859539986,-7.1198045376386645],[-34.87091727554798,-7.120525145485548],[-34.87869702279568,-7.116866202512025],[-34.881735630333424,-7.115917693802003],[-34.881743006408215,-7.115711756366032],[-34.88214064389467,-7.1157047697955145],[-34.88338351249695,-7.1154342896260685],[-34.883377477526665,-7.114932919443908],[-34.88398935645819,-7.11466443498721],[-34.886174350976944,-7.113964777728368],[-34.887161403894424,-7.113958789216546],[-34.88765191286802,-7.1144947607142415],[-34.88664709031582,-7.116329235703316],[-34.88677114248276,-7.116374149308064],[-34.886922016739845,-7.117191243453359],[-34.88754831254482,-7.123005012590075]]]},"id":"a39c47af-b38b-49e1-b58a-f321a944b281","properties":{"text":"Centro"}},{"type":"Feature","geometry":{"type":"Polygon","coordinates":[[[-34.89192333072424,-7.144044085534784],[-34.89251274615526,-7.145224076045099],[-34.893667101860046,-7.148182189412832],[-34.893912859261036,-7.1483461958127315],[-34.89431384950876,-7.148358171936991],[-34.894474446773536,-7.148428032655588],[-34.894931092858315,-7.149570087554467],[-34.89492807537317,-7.149879137165841],[-34.894501604139805,-7.15010635004064],[-34.89492908120155,-7.150935360039497],[-34.89538170397282,-7.152233762322433],[-34.894654490053654,-7.152441346664846],[-34.895262345671654,-7.154162230535822],[-34.89513963460922,-7.154253380979446],[-34.89078473299742,-7.155115317303747],[-34.89053964614868,-7.155063754196161],[-34.88942049443722,-7.156136598298124],[-34.88855481147766,-7.156434332880882],[-34.88817695528269,-7.155088038757239],[-34.88702092319727,-7.156646905274175],[-34.887005500495434,-7.155710454942823],[-34.886619597673416,-7.154752379435822],[-34.8869089409709,-7.152836222389046],[-34.88686602562666,-7.1522720190593105],[-34.886715821921825,-7.151612006732128],[-34.886233024299145,-7.150451660166823],[-34.88586824387313,-7.150057780387267],[-34.884741716086864,-7.149440346535808],[-34.884420186281204,-7.149174210997607],[-34.883905202150345,-7.148152249090073],[-34.88351862877607,-7.14699189373622],[-34.88318603485823,-7.1462573553377995],[-34.88267943263054,-7.145608645172617],[-34.88241523504257,-7.145429667539325],[-34.88167360424996,-7.1452034503561],[-34.88085452467203,-7.144501178357809],[-34.87981751561165,-7.144128251860404],[-34.87882241606712,-7.143202754100244],[-34.88077372312546,-7.140727653833497],[-34.882684126496315,-7.138773845466263],[-34.883514270186424,-7.137527635395992],[-34.88454960286617,-7.135731503378544],[-34.88433200865984,-7.13566929234515],[-34.88517489284277,-7.134882837696699],[-34.88640200346709,-7.135508275513615],[-34.88663837313652,-7.135106065866642],[-34.88824971020222,-7.133915736155957],[-34.88688714802265,-7.132180470753551],[-34.886736273765564,-7.131619901441158],[-34.88900911062956,-7.131399665713427],[-34.889258556067944,-7.13188371841965],[-34.88835163414478,-7.132179472707896],[-34.88824166357517,-7.132676499169264],[-34.88900810480118,-7.133923387810151],[-34.89067979156971,-7.136093790993171],[-34.89126551896334,-7.137256502750142],[-34.892139583826065,-7.138408233200067],[-34.895514473319054,-7.139311451325123],[-34.893651343882084,-7.139527025774236],[-34.893157817423344,-7.139771875642605],[-34.892930164933205,-7.140610884659372],[-34.89267501980066,-7.141006768633222],[-34.892621375620365,-7.141336782574745],[-34.89346191287041,-7.143249661113008],[-34.89192333072424,-7.144044085534784]]]},"id":"7f963016-0395-41d9-9f40-05ec83ee9531","properties":{"text":"Cruz das Armas"}},{"type":"Feature","geometry":{"type":"Polygon","coordinates":[[[-34.88287556916475,-7.184768793120644],[-34.882717318832874,-7.184707919349939],[-34.88151032477617,-7.184705590844903],[-34.87930420786142,-7.185446387493102],[-34.87985473126173,-7.1774738619116745],[-34.88857492804527,-7.175453680841936],[-34.88907650113106,-7.1751609484429535],[-34.89330969750881,-7.179768468027511],[-34.89267837256193,-7.1821246019831015],[-34.89239774644375,-7.183489776935189],[-34.89219591021538,-7.183960135971596],[-34.89158168435097,-7.186199823348441],[-34.890453815460205,-7.190596337813227],[-34.88589573651552,-7.190904694308775],[-34.88587461411953,-7.190483573087825],[-34.88530598580837,-7.187863365375668],[-34.885133653879166,-7.186100363234226],[-34.88634366542101,-7.185963979764681],[-34.886191450059414,-7.184621432011474],[-34.88287556916475,-7.184768793120644]]]},"id":"f23ede7e-b807-4a9f-a4f7-7e1965d98a1c","properties":{"text":"Funcion\u00e1rios"}},{"type":"Feature","geometry":{"type":"Polygon","coordinates":[[[-34.8538426682353,-7.193652617110212],[-34.85376890748739,-7.199428157070243],[-34.85386312007904,-7.203263064335814],[-34.85375180840492,-7.203407093094603],[-34.853823222219944,-7.206113694307132],[-34.853746108710766,-7.206481913230351],[-34.85352549701929,-7.206850797109033],[-34.853354170918465,-7.206925638256094],[-34.8498535528779,-7.207339093792264],[-34.848975129425526,-7.207328117101488],[-34.84740536659956,-7.207597544889128],[-34.847414419054985,-7.207741904897089],[-34.841951094567776,-7.208703195021252],[-34.841425716876984,-7.203606670975725],[-34.84111558645964,-7.203663550655732],[-34.83759552240372,-7.201708349139992],[-34.83775645494461,-7.199622081947581],[-34.83808569610119,-7.199585492354417],[-34.83796801418066,-7.198355747675222],[-34.83881592750549,-7.19704650001426],[-34.84026566147804,-7.196853571939973],[-34.84031528234482,-7.1969230925830905],[-34.839656464755535,-7.193146343271817],[-34.839941784739494,-7.193133703050513],[-34.84111927449703,-7.192584518357947],[-34.84533369541168,-7.1905125127103],[-34.8456109687686,-7.190273677609906],[-34.846003241837025,-7.190272679691398],[-34.84607767313719,-7.190425028558568],[-34.84624832868576,-7.190469934874312],[-34.84654102474451,-7.190391431978718],[-34.84688267111778,-7.190453968184771],[-34.84737318009138,-7.190276006086432],[-34.84905995428562,-7.188900207025192],[-34.84947267919779,-7.188450809475353],[-34.850006103515625,-7.188061286887104],[-34.851454831659794,-7.187450557374413],[-34.851971827447414,-7.187410640384214],[-34.853634126484394,-7.18774960204772],[-34.8541310057044,-7.187973802263251],[-34.85520254820585,-7.1886756746261815],[-34.855073131620884,-7.189390186230538],[-34.85511973500252,-7.189754094408969],[-34.85552776604891,-7.1907174184901805],[-34.8559582605958,-7.19120606517979],[-34.856151714921,-7.191645480848548],[-34.85618222504854,-7.192205643733964],[-34.85584929585457,-7.192761481638519],[-34.855288714170456,-7.192947093426335],[-34.854464940726764,-7.193011957742908],[-34.85398482531309,-7.193231498437892],[-34.8538426682353,-7.193652617110212]]]},"id":"e612ea2d-6dbe-4cad-b726-8ddb24403198","properties":{"text":"Valentina Figueiredo"}},{"type":"Feature","geometry":{"type":"Polygon","coordinates":[[[-34.88473668694496,-7.125813893352797],[-34.88470282405615,-7.126787333030774],[-34.884380623698235,-7.127868227912716],[-34.88338083028793,-7.129420200869405],[-34.882194958627224,-7.1304515197547875],[-34.88189857453108,-7.130909291522361],[-34.88149557262659,-7.131966223572144],[-34.88146975636482,-7.132452937132908],[-34.88211952149868,-7.134859882781848],[-34.882317669689655,-7.13509408939532],[-34.88454960286617,-7.135731503378544],[-34.883514270186424,-7.137527635395992],[-34.882684126496315,-7.138773845466263],[-34.88077372312546,-7.140727653833497],[-34.87882241606712,-7.143202754100244],[-34.878401309251785,-7.142754974856485],[-34.87792890518904,-7.1424462531016495],[-34.877156428992755,-7.141732998595158],[-34.8766203224659,-7.141126199109326],[-34.87611573189497,-7.140838767492902],[-34.874420911073685,-7.140679083183503],[-34.873648434877396,-7.140828121873988],[-34.87328331917524,-7.140828121873988],[-34.87254302948713,-7.1410942622719755],[-34.87099103629589,-7.141005105255895],[-34.87148556858301,-7.140059307929503],[-34.87134508788586,-7.138141425884202],[-34.8677646741271,-7.12910115691172],[-34.871886894106865,-7.126557114400927],[-34.88473668694496,-7.125813893352797]]]},"id":"681efd3c-3d6d-485c-afaf-00e4c55c4421","properties":{"text":"Jaguaribe"}},{"type":"Feature","geometry":{"type":"Polygon","coordinates":[[[-34.86265808343888,-7.17390718675407],[-34.86277174204588,-7.173345338063238],[-34.8645855858922,-7.169726736454864],[-34.86484944820404,-7.168860835888365],[-34.8657738044858,-7.170014482533048],[-34.866566732525826,-7.170477204457876],[-34.86707299947739,-7.170664155957714],[-34.868320897221565,-7.170701745840757],[-34.87429551780224,-7.169864122755336],[-34.873737283051014,-7.17915839266879],[-34.873726554214954,-7.1871761279959925],[-34.87281762063503,-7.187424278689593],[-34.87260539084673,-7.1882309338282555],[-34.87285282462835,-7.189232182131769],[-34.873475432395935,-7.189916422643133],[-34.870849549770355,-7.190570724588993],[-34.87072583287954,-7.190207149704424],[-34.87042475491762,-7.189922410158869],[-34.87032685428858,-7.189707192182966],[-34.870494827628136,-7.188450809475353],[-34.8703758046031,-7.187846733311962],[-34.86985109746456,-7.187173466861818],[-34.86771002411842,-7.185229504180918],[-34.86729729920626,-7.184722888310723],[-34.865729883313186,-7.181487918111128],[-34.86265808343888,-7.17390718675407]]]},"id":"f350019f-6093-47e5-b9ea-3846bd0d06c6","properties":{"text":"Ernesto Geisel"}},{"type":"Feature","geometry":{"type":"Polygon","coordinates":[[[-34.85029812902212,-7.186641572355101],[-34.8503353446722,-7.186048470992117],[-34.850234761834145,-7.1850937857365915],[-34.849944077432156,-7.184049617232453],[-34.849906861782074,-7.183640464854863],[-34.85001280903816,-7.183315138555231],[-34.85046744346619,-7.182858749938805],[-34.85063675791025,-7.182523111079422],[-34.85081110149622,-7.181520850057388],[-34.85072124749422,-7.181216478947934],[-34.85053617507219,-7.180949031378701],[-34.85025588423014,-7.180791689638218],[-34.8497536405921,-7.180261783545282],[-34.84945759177208,-7.180109763918165],[-34.84905023127794,-7.179317398211891],[-34.84894998371601,-7.178693018385358],[-34.84837330877781,-7.1768042392443965],[-34.84719414263964,-7.174417141182147],[-34.84707277268171,-7.173409872524791],[-34.8469564318657,-7.172948151536627],[-34.84668653458357,-7.172397279197498],[-34.8462188243866,-7.1701595197936925],[-34.846019335091114,-7.169507184411686],[-34.84856441617012,-7.168287670681805],[-34.84998431056738,-7.168668228508248],[-34.84985154122114,-7.168442022845552],[-34.85069911926985,-7.16683296550104],[-34.851070269942284,-7.166591456713676],[-34.85242746770382,-7.166541558187956],[-34.8526856303215,-7.166429785470473],[-34.85219579190016,-7.165714572492386],[-34.851831682026386,-7.165339667380615],[-34.854171238839626,-7.164326390797139],[-34.85662378370762,-7.16273062530754],[-34.860835522413254,-7.1697413732539745],[-34.8631164059043,-7.172589552348085],[-34.86277174204588,-7.173345338063238],[-34.86265808343888,-7.17390718675407],[-34.86111178994179,-7.175188558438641],[-34.85760044306517,-7.17972954830443],[-34.85709987580776,-7.179901859531839],[-34.85640451312065,-7.180493305680682],[-34.85456619411707,-7.183746578393043],[-34.854052886366844,-7.184321719991881],[-34.852959886193275,-7.185323974838817],[-34.8519329354167,-7.185981277182602],[-34.85029812902212,-7.186641572355101]]]},"id":"cee7a167-9e52-4457-8de2-8c6994c51688","properties":{"text":"Jos\u00e9 Am\u00e9rico"}},{"type":"Feature","geometry":{"type":"Polygon","coordinates":[[[-34.86708842217922,-7.1197998799665285],[-34.865858629345894,-7.117738190024404],[-34.865737929940224,-7.1176130976787695],[-34.86519277095795,-7.117387199446988],[-34.865614883601665,-7.116922760317723],[-34.866282753646374,-7.116387789735306],[-34.86707031726837,-7.116288647108614],[-34.86732378602028,-7.115884091738787],[-34.867580607533455,-7.1152373347160385],[-34.86795645207167,-7.114733302762436],[-34.868273958563805,-7.114505406945004],[-34.868922382593155,-7.113842678611],[-34.869250282645226,-7.113245157666479],[-34.86966636031866,-7.1130635058220735],[-34.86972101032734,-7.112701532701711],[-34.869959726929665,-7.11230163191897],[-34.87015921622515,-7.111591990155166],[-34.870134741067886,-7.111195415377243],[-34.8703707754612,-7.110515049293652],[-34.87058401107788,-7.11015240876885],[-34.87197909504175,-7.113985072128921],[-34.87294603139162,-7.114677077381494],[-34.87418353557587,-7.115239996269436],[-34.87747494131327,-7.114655452233159],[-34.8782490938902,-7.114861390143033],[-34.87846568226814,-7.114429552545612],[-34.880561493337154,-7.1146637695980335],[-34.88109726458788,-7.114225277916529],[-34.88113548606634,-7.114537678330399],[-34.88192606717348,-7.115679152369323],[-34.881743006408215,-7.115711756366032],[-34.881735630333424,-7.115917693802003],[-34.87869702279568,-7.116866202512025],[-34.87091727554798,-7.120525145485548],[-34.870557859539986,-7.1198045376386645],[-34.86778378486633,-7.119816514509655],[-34.86708842217922,-7.1197998799665285]]]},"id":"31a84741-8290-4305-b4d4-8f77ed8da313","properties":{"text":"Tambi\u00e1"}}],"metadata":{"tileStats":{"layers":[{"layer":"Top Bairros","sourceType":"geojson","attributes":[{"attribute":"text","type":"String","values":["Centro","Cruz das Armas","Ernesto Geisel","Funcion\u00e1rios","Gramame","Jaguaribe","Jos\u00e9 Am\u00e9rico","Mangabeira","Tambi\u00e1","Valentina Figueiredo"]}],"attributeCount":1,"geometry":["Polygon"]}],"layerCount":1}}}
